[{"OBJECT_NAME":"IRIDIUM 161","OBJECT_ID":"2018-047C","EPOCH":"2026-03-09T16:18:06.514848","MEAN_MOTION":14.43273444,"ECCENTRICITY":0.00024982,"INCLINATION":86.4503,"RA_OF_ASC_NODE":130.0875,"ARG_OF_PERICENTER":89.1489,"MEAN_ANOMALY":270.9998,"EPHEMERIS_TYPE":0,"CLASSIFICATION_TYPE":"U","NORAD_CAT_ID":43478,"ELEMENT_SET_NO":999,"REV_AT_EPOCH":41078,"BSTAR":3.7950736e-5,"MEAN_MOTION_DOT":1.48e-6,"MEAN_MOTION_DDOT":0},{"OBJECT_NAME":"ARIANE 40 R\/B","OBJECT_ID":"1991-050F","EPOCH":"2026-03-09T17:57:30.236832","MEAN_MOTION":14.42893607,"ECCENTRICITY":0.00043191,"INCLINATION":98.2011,"RA_OF_ASC_NODE":120.9824,"ARG_OF_PERICENTER":81.156,"MEAN_ANOMALY":279.012,"EPHEMERIS_TYPE":0,"CLASSIFICATION_TYPE":"U","NORAD_CAT_ID":21610,"ELEMENT_SET_NO":999,"REV_AT_EPOCH":81900,"BSTAR":0.0001220285,"MEAN_MOTION_DOT":3.66e-6,"MEAN_MOTION_DDOT":0}]
